NAVSTAR 77 (USA 289)    
1 43873U 18109A   23359.58104823 -.00000014  00000+0  00000+0 0  9991
2 43873  55.2343 127.9285 0028022 191.1327 164.4848  2.00572271 36922
